ONEWEB-0387             
1 49313U 21090AL  24107.32942091  .00000113  00000+0  24668-3 0  9999
2 49313  87.9174  72.0665 0002361  81.0771 279.0630 13.20771700125294
ONEWEB-0388             
1 49314U 21090AM  24107.42562597  .00000030  00000+0  42812-4 0  9990
2 49314  87.9100 102.5618 0001860  83.4304 276.7040 13.19725676121982
ONEWEB-0389             
1 50469U 21132A   24107.56427574  .00000007  00000+0 -15204-4 0  9990
2 50469  87.9218 163.3957 0002531  92.7626 267.3795 13.17651001113838
ONEWEB-0390             
1 50470U 21132B   24107.56583457  .00000059  00000+0  11810-3 0  9999
2 50470  87.9216 163.4030 0002464 103.3673 256.7733 13.17650416113830
ONEWEB-0391             
1 50471U 21132C   24107.56741655  .00000023  00000+0  27358-4 0  9992
2 50471  87.9225 163.3811 0002433  89.6461 270.4949 13.17650372113837
ONEWEB-0392             
1 50472U 21132D   24107.59747965  .00000052  00000+0  10050-3 0  9998
2 50472  87.9209 163.3847 0002403  94.6423 265.4983 13.17647444113872
ONEWEB-0393             
1 50473U 21132E   24107.57072062  .00000031  00000+0  46698-4 0  9991
2 50473  87.9220 163.3597 0002419  93.5855 266.5553 13.17649720115159
ONEWEB-0394             
1 50474U 21132F   24107.55420557  .00000093  00000+0  20244-3 0  9992
2 50474  87.9132 133.0445 0002076  89.9573 270.1797 13.18686491118536
ONEWEB-0395             
1 50475U 21132G   24107.58841836  .00000058  00000+0  12823-3 0  9998
2 50475  87.9019 178.5384 0002315  99.3578 260.7811 13.11413620111960
ONEWEB-0396             
1 50476U 21132H   24107.54788609  .00000085  00000+0  18374-3 0  9990
2 50476  87.9137 133.0408 0002067  87.7229 272.4140 13.18686414117302
ONEWEB-0397             
1 50477U 21132J   24107.56211020  .00000085  00000+0  18176-3 0  9991
2 50477  87.9137 133.0394 0002114  86.8145 273.3229 13.18686501117289
ONEWEB-0398             
1 50478U 21132K   24107.55594444  .00000108  00000+0  26865-3 0  9995
2 50478  87.9019 178.5267 0002449 106.1225 254.0172 13.11415034111852
ONEWEB-0399             
1 50479U 21132L   24107.46503991 -.00000451  00000+0 -13084-2 0  9994
2 50479  87.9020 178.5601 0001831  90.8640 269.2697 13.11418359111832
ONEWEB-0400             
1 50480U 21132M   24107.61743684  .00000016  00000+0  66801-5 0  9991
2 50480  87.9134 133.0337 0002204  98.3536 261.7846 13.18685786118561
ONEWEB-0401             
1 50481U 21132N   24107.58423452  .00000041  00000+0  72176-4 0  9995
2 50481  87.9130 133.0385 0001716  89.2207 270.9122 13.18686252117288
ONEWEB-0402             
1 50482U 21132P   24107.54944222  .00000061  00000+0  12249-3 0  9991
2 50482  87.9132 133.0419 0001439  98.3931 261.7364 13.18686484117302
ONEWEB-0403             
1 50483U 21132Q   24107.57315733  .00000099  00000+0  21947-3 0  9990
2 50483  87.9133 133.0442 0002014  87.3347 272.8016 13.18687479117266
ONEWEB-0404             
1 50484U 21132R   24107.59978335 -.00000381  00000+0 -11113-2 0  9995
2 50484  87.9026 178.5010 0002348  91.3645 268.7752 13.11418046111944
ONEWEB-0405             
1 50485U 21132S   24107.58897444  .00000061  00000+0  12186-3 0  9991
2 50485  87.9133 133.0304 0001638  84.2591 275.8728 13.18687814118956
ONEWEB-0406             
1 50486U 21132T   24107.57792126  .00000039  00000+0  66367-4 0  9998
2 50486  87.9135 133.0426 0002420  89.3561 270.7848 13.18685638117292
ONEWEB-0407             
1 50487U 21132U   24107.57159155  .00000067  00000+0  13617-3 0  9998
2 50487  87.9130 133.0488 0001910  88.6856 271.4495 13.18686773117239
ONEWEB-0409             
1 50488U 21132V   24107.59815365 -.00000414  00000+0 -12044-2 0  9993
2 50488  87.9015 178.5031 0002664  94.7107 265.4326 13.11413205111831
ONEWEB-0412             
1 50489U 21132W   24107.56051619  .00000084  00000+0  18043-3 0  9992
2 50489  87.9135 133.0472 0001604  79.7580 280.3733 13.18687109118604
ONEWEB-0413             
1 50490U 21132X   24107.48939726  .00000085  00000+0  18208-3 0  9993
2 50490  87.9135 133.0748 0001573  90.8987 269.2325 13.18685483118541
ONEWEB-0414             
1 50491U 21132Y   24107.55103013  .00000081  00000+0  17222-3 0  9995
2 50491  87.9133 133.0434 0001906  83.1327 277.0022 13.18686402117299
ONEWEB-0417             
1 50492U 21132Z   24107.55895176  .00000103  00000+0  22910-3 0  9999
2 50492  87.9140 133.0404 0002337  90.3845 269.7555 13.18686210118566
ONEWEB-0418             
1 50493U 21132AA  24107.56829640  .00000067  00000+0  13838-3 0  9992
2 50493  87.9135 133.0440 0002533  86.7220 273.4202 13.18685075117338
ONEWEB-0419             
1 50494U 21132AB  24107.58582054  .00000085  00000+0  18293-3 0  9990
2 50494  87.9129 133.0601 0002394  94.6344 265.5061 13.18686330117252
ONEWEB-0420             
1 50495U 21132AC  24107.55260119  .00000101  00000+0  22295-3 0  9999
2 50495  87.9132 133.0750 0001685  98.9940 261.1383 13.18688554117241
ONEWEB-0421             
1 50496U 21132AD  24107.54630301  .00000047  00000+0  86948-4 0  9998
2 50496  87.9141 133.0374 0001813  81.2441 278.8897 13.18687094117285
ONEWEB-0424             
1 50497U 21132AE  24107.58108630  .00000031  00000+0  45441-4 0  9994
2 50497  87.9133 133.0396 0002497 101.9204 258.2209 13.18685539118593
ONEWEB-0426             
1 50498U 21132AF  24107.61901575  .00000060  00000+0  11961-3 0  9999
2 50498  87.9130 133.0516 0002369  77.1556 282.9840 13.18686280118552
ONEWEB-0427             
1 50499U 21132AG  24107.50361170  .00000085  00000+0  18177-3 0  9992
2 50499  87.9131 133.0513 0002263  88.8944 271.2447 13.18684065118579
ONEWEB-0429             
1 50500U 21132AH  24107.56685456  .00000066  00000+0  13407-3 0  9997
2 50500  87.9137 133.0408 0001960  93.4139 266.7217 13.18684986118545
ONEWEB-0430             
1 50501U 21132AJ  24107.55577730 -.00000191  00000+0 -51729-3 0  9992
2 50501  87.9135 133.0499 0002229 106.3558 253.7819 13.18685351117294
ONEWEB-0432             
1 50502U 21132AK  24107.58739611  .00000039  00000+0  66877-4 0  9994
2 50502  87.9132 133.0372 0001995  96.8145 263.3214 13.18686861117255
ONEWEB-0440             
1 50503U 21132AL  24107.57475526 -.00000014  00000+0 -67165-4 0  9992
2 50503  87.9138 133.0264 0001519  79.9604 280.1700 13.18685822117248
ONEWEB-0450             
1 50504U 21132AM  24107.49268378  .00000103  00000+0  22943-3 0  9990
2 50504  87.9135 133.0711 0001797 102.8084 257.3249 13.18687430117262
ONEWEB-0410             
1 51622U 22012A   24107.58323736 -.00000533  00000+0 -14059-2 0  9997
2 51622  87.9213 163.3765 0003175  71.8268 288.3209 13.17649343109459
ONEWEB-0411             
1 51623U 22012B   24107.49116544 -.00000504  00000+0 -14793-2 0  9998
2 51623  87.8995 193.5873 0002350 112.6948 247.4428 13.10370436105603
ONEWEB-0415             
1 51624U 22012C   24107.48784618 -.00000420  00000+0 -12393-2 0  9992
2 51624  87.8989 193.6129 0002379 109.5265 250.6120 13.10368012105602
ONEWEB-0416             
1 51625U 22012D   24107.49947856 -.00000534  00000+0 -15656-2 0  9990
2 51625  87.8997 193.6013 0001971 102.3516 257.7832 13.10371672105649
ONEWEB-0422             
1 51626U 22012E   24107.59273385  .00000046  00000+0  85004-4 0  9993
2 51626  87.9214 163.3733 0001442 114.0548 246.0734 13.17648280109560
ONEWEB-0423             
1 51627U 22012F   24107.66234977  .00000010  00000+0 -78499-5 0  9999
2 51627  87.9217 163.3593 0001995  96.6601 263.4757 13.17648068110751
ONEWEB-0425             
1 51628U 22012G   24107.73850494 -.00000302  00000+0 -90159-3 0  9996
2 51628  87.8999 193.5405 0001885  90.1504 269.9839 13.10372265106960
ONEWEB-0428             
1 51629U 22012H   24107.48952836 -.00000350  00000+0 -10401-2 0  9996
2 51629  87.8994 193.6038 0001888 114.5512 245.5812 13.10368733105608
ONEWEB-0431             
1 51630U 22012J   24107.53586113  .00000680  00000+0  19109-2 0  9993
2 51630  87.8990 193.5960 0002339 121.7203 238.4153 13.10377278105667
ONEWEB-0434             
1 51631U 22012K   24107.51275334 -.00000092  00000+0 -30008-3 0  9993
2 51631  87.9001 193.6110 0001770 105.7008 254.4315 13.10377916106931
ONEWEB-0435             
1 51632U 22012L   24107.59740568  .00000232  00000+0  62954-3 0  9997
2 51632  87.9002 193.5850 0001692 114.0231 246.1073 13.10375925105641
ONEWEB-0436             
1 51633U 22012M   24107.57849743  .00000054  00000+0  10489-3 0  9999
2 51633  87.9212 163.3833 0001851 101.8196 258.3143 13.17649708109436
ONEWEB-0438             
1 51634U 22012N   24107.50443690 -.00000380  00000+0 -11259-2 0  9993
2 51634  87.9001 193.6039 0001990  97.2292 262.9062 13.10373517105663
ONEWEB-0439             
1 51635U 22012P   24107.50775806 -.00000378  00000+0 -11198-2 0  9990
2 51635  87.9001 193.5872 0001980 105.3336 254.8010 13.10372709105640
ONEWEB-0442             
1 51636U 22012Q   24107.64573632  .00000039  00000+0  67228-4 0  9998
2 51636  87.9216 163.4024 0002790  88.9011 271.2441 13.17647842110726
ONEWEB-0443             
1 51637U 22012R   24107.58956049  .00000039  00000+0  68232-4 0  9995
2 51637  87.9217 163.4205 0001531  96.7293 263.4013 13.17650188109475
ONEWEB-0444             
1 51638U 22012S   24107.49780480 -.00000557  00000+0 -16331-2 0  9998
2 51638  87.8993 193.6144 0001789 105.1429 254.9897 13.10371375105656
ONEWEB-0445             
1 51639U 22012T   24107.59573429 -.00000060  00000+0 -20862-3 0  9997
2 51639  87.8992 193.5701 0002306 101.4480 258.6906 13.10374265105671
ONEWEB-0446             
1 51640U 22012U   24107.49615210 -.00000548  00000+0 -16063-2 0  9991
2 51640  87.8998 193.6082 0002354 104.7821 255.3567 13.10371784105647
ONEWEB-0448             
1 51641U 22012V   24107.50109382 -.00000528  00000+0 -15482-2 0  9994
2 51641  87.8999 193.6081 0001806 103.0552 257.0777 13.10371894105613
ONEWEB-0449             
1 51642U 22012W   24107.50608942 -.00000359  00000+0 -10633-2 0  9996
2 51642  87.8993 193.6058 0002027  94.4296 265.7063 13.10374343106927
